name,email,address1,address2,phone,city,state,zip,message
Juan Pérez,juan.pérez@example.com,Calle 25 #2-10,Apartamento 23,+57 313-2702052,Riohacha,La Guajira,52202,"Hola, soy Juan y estoy interesado en más información."
Juan Gómez,juan.gómez@example.com,Calle 81 #38-13,Apartamento 32,+57 346-2431751,Aracataca,Magdalena,58723,"Hola, soy Juan y estoy interesado en más información."
Diana Gómez,diana.gómez@example.com,Calle 74 #29-19,Apartamento 33,+57 342-1439150,Sincelejo,Sucre,56449,"Hola, soy Diana y estoy interesado en más información."
Diana Gómez,diana.gómez@example.com,Calle 42 #36-20,Apartamento 1,+57 346-9457249,Cartagena,Bolívar,50284,"Hola, soy Diana y estoy interesado en más información."
María Gómez,maría.gómez@example.com,Calle 13 #32-20,Apartamento 43,+57 350-2586153,Ciénaga,Magdalena,51888,"Hola, soy María y estoy interesado en más información."
Luis López,luis.lópez@example.com,Calle 76 #24-6,Apartamento 25,+57 336-1266327,San Andrés,San Andrés,56687,"Hola, soy Luis y estoy interesado en más información."
Juan Gómez,juan.gómez@example.com,Calle 38 #16-6,Apartamento 21,+57 311-4674596,Aracataca,Magdalena,59648,"Hola, soy Juan y estoy interesado en más información."
María Rodríguez,maría.rodríguez@example.com,Calle 97 #27-16,Apartamento 10,+57 349-7834663,Montería,Córdoba,53924,"Hola, soy María y estoy interesado en más información."
Diana Martínez,diana.martínez@example.com,Calle 60 #31-14,Apartamento 3,+57 345-8667211,Riohacha,La Guajira,53486,"Hola, soy Diana y estoy interesado en más información."
Ana Pérez,ana.pérez@example.com,Calle 52 #24-1,Apartamento 47,+57 316-2938755,Valledupar,Cesar,54338,"Hola, soy Ana y estoy interesado en más información."
Ana Rodríguez,ana.rodríguez@example.com,Calle 94 #39-11,Apartamento 15,+57 303-7003240,Montería,Córdoba,54038,"Hola, soy Ana y estoy interesado en más información."
Diana Martínez,diana.martínez@example.com,Calle 63 #31-6,Apartamento 16,+57 325-8664366,Riohacha,La Guajira,57526,"Hola, soy Diana y estoy interesado en más información."
Diana Rodríguez,diana.rodríguez@example.com,Calle 8 #3-1,Apartamento 1,+57 333-4809090,Cartagena,Bolívar,54807,"Hola, soy Diana y estoy interesado en más información."
Luis López,luis.lópez@example.com,Calle 49 #3-13,Apartamento 3,+57 318-2876159,Montería,Córdoba,53978,"Hola, soy Luis y estoy interesado en más información."
Juan Martínez,juan.martínez@example.com,Calle 22 #12-10,Apartamento 35,+57 338-7695432,Santa Marta,Magdalena,54813,"Hola, soy Juan y estoy interesado en más información."
María Pérez,maría.pérez@example.com,Calle 33 #45-18,Apartamento 28,+57 311-5993808,Ciénaga,Magdalena,51179,"Hola, soy María y estoy interesado en más información."
Diana López,diana.lópez@example.com,Calle 41 #21-16,Apartamento 41,+57 304-4001660,Montería,Córdoba,52950,"Hola, soy Diana y estoy interesado en más información."
Carlos Rodríguez,carlos.rodríguez@example.com,Calle 36 #16-19,Apartamento 12,+57 333-9286756,Aracataca,Magdalena,51006,"Hola, soy Carlos y estoy interesado en más información."
Luis Martínez,luis.martínez@example.com,Calle 47 #16-19,Apartamento 33,+57 319-5103000,Valledupar,Cesar,55998,"Hola, soy Luis y estoy interesado en más información."
Luis Rodríguez,luis.rodríguez@example.com,Calle 80 #14-1,Apartamento 41,+57 321-9549012,Ciénaga,Magdalena,57753,"Hola, soy Luis y estoy interesado en más información."
Juan Martínez,juan.martínez@example.com,Calle 12 #26-18,Apartamento 39,+57 314-1798117,Cartagena,Bolívar,59710,"Hola, soy Juan y estoy interesado en más información."
María López,maría.lópez@example.com,Calle 79 #24-5,Apartamento 35,+57 301-8963656,Ciénaga,Magdalena,52855,"Hola, soy María y estoy interesado en más información."
Ana Martínez,ana.martínez@example.com,Calle 95 #30-14,Apartamento 28,+57 323-3587528,Aracataca,Magdalena,56655,"Hola, soy Ana y estoy interesado en más información."
Juan López,juan.lópez@example.com,Calle 24 #37-3,Apartamento 30,+57 326-3896035,Valledupar,Cesar,52878,"Hola, soy Juan y estoy interesado en más información."
Ana Gómez,ana.gómez@example.com,Calle 76 #8-4,Apartamento 25,+57 306-5654184,Sincelejo,Sucre,58851,"Hola, soy Ana y estoy interesado en más información."
María Pérez,maría.pérez@example.com,Calle 87 #11-16,Apartamento 19,+57 300-2250284,Cartagena,Bolívar,56127,"Hola, soy María y estoy interesado en más información."
Diana Pérez,diana.pérez@example.com,Calle 36 #20-19,Apartamento 21,+57 345-6277484,Riohacha,La Guajira,53750,"Hola, soy Diana y estoy interesado en más información."
Diana Pérez,diana.pérez@example.com,Calle 80 #34-7,Apartamento 37,+57 303-3330958,San Andrés,San Andrés,55762,"Hola, soy Diana y estoy interesado en más información."
Diana López,diana.lópez@example.com,Calle 62 #35-17,Apartamento 19,+57 313-2603633,Valledupar,Cesar,53920,"Hola, soy Diana y estoy interesado en más información."
Juan Rodríguez,juan.rodríguez@example.com,Calle 57 #16-9,Apartamento 42,+57 345-7539370,Ciénaga,Magdalena,51225,"Hola, soy Juan y estoy interesado en más información."
Luis Martínez,luis.martínez@example.com,Calle 28 #39-8,Apartamento 22,+57 323-8395402,Barranquilla,Atlántico,59639,"Hola, soy Luis y estoy interesado en más información."
Diana Rodríguez,diana.rodríguez@example.com,Calle 95 #15-6,Apartamento 31,+57 345-2083827,Cartagena,Bolívar,52998,"Hola, soy Diana y estoy interesado en más información."
Carlos Gómez,carlos.gómez@example.com,Calle 24 #23-7,Apartamento 36,+57 332-1614024,Sincelejo,Sucre,52162,"Hola, soy Carlos y estoy interesado en más información."
Ana Gómez,ana.gómez@example.com,Calle 51 #6-20,Apartamento 21,+57 319-2939307,San Andrés,San Andrés,55048,"Hola, soy Ana y estoy interesado en más información."
Luis Martínez,luis.martínez@example.com,Calle 25 #24-14,Apartamento 10,+57 337-9490592,Aracataca,Magdalena,54967,"Hola, soy Luis y estoy interesado en más información."
Carlos Martínez,carlos.martínez@example.com,Calle 44 #41-15,Apartamento 30,+57 336-9716712,Barranquilla,Atlántico,57415,"Hola, soy Carlos y estoy interesado en más información."
Carlos Rodríguez,carlos.rodríguez@example.com,Calle 72 #12-8,Apartamento 6,+57 332-4207826,San Andrés,San Andrés,51629,"Hola, soy Carlos y estoy interesado en más información."
María Martínez,maría.martínez@example.com,Calle 82 #28-12,Apartamento 7,+57 343-4334638,Montería,Córdoba,56272,"Hola, soy María y estoy interesado en más información."
Luis López,luis.lópez@example.com,Calle 25 #2-2,Apartamento 27,+57 320-8030143,Ciénaga,Magdalena,54486,"Hola, soy Luis y estoy interesado en más información."
Juan Martínez,juan.martínez@example.com,Calle 84 #9-8,Apartamento 42,+57 300-6985448,Barranquilla,Atlántico,59986,"Hola, soy Juan y estoy interesado en más información."
Diana Pérez,diana.pérez@example.com,Calle 95 #17-10,Apartamento 6,+57 348-1943251,Cartagena,Bolívar,54391,"Hola, soy Diana y estoy interesado en más información."
Juan Martínez,juan.martínez@example.com,Calle 73 #5-16,Apartamento 23,+57 345-3834850,Ciénaga,Magdalena,58775,"Hola, soy Juan y estoy interesado en más información."
María López,maría.lópez@example.com,Calle 81 #37-17,Apartamento 5,+57 306-5544890,Ciénaga,Magdalena,54264,"Hola, soy María y estoy interesado en más información."
Carlos Gómez,carlos.gómez@example.com,Calle 46 #13-9,Apartamento 35,+57 347-3026205,Riohacha,La Guajira,52138,"Hola, soy Carlos y estoy interesado en más información."
Carlos Gómez,carlos.gómez@example.com,Calle 36 #22-10,Apartamento 27,+57 322-4321614,Santa Marta,Magdalena,51666,"Hola, soy Carlos y estoy interesado en más información."
María Pérez,maría.pérez@example.com,Calle 23 #47-18,Apartamento 50,+57 350-2204490,Ciénaga,Magdalena,57593,"Hola, soy María y estoy interesado en más información."
Carlos Rodríguez,carlos.rodríguez@example.com,Calle 47 #21-2,Apartamento 1,+57 306-7967222,San Andrés,San Andrés,58871,"Hola, soy Carlos y estoy interesado en más información."
Diana Gómez,diana.gómez@example.com,Calle 50 #18-17,Apartamento 3,+57 302-9808217,Valledupar,Cesar,53354,"Hola, soy Diana y estoy interesado en más información."
Ana Martínez,ana.martínez@example.com,Calle 98 #47-13,Apartamento 42,+57 314-4564176,Sincelejo,Sucre,50630,"Hola, soy Ana y estoy interesado en más información."
Ana Martínez,ana.martínez@example.com,Calle 25 #16-6,Apartamento 40,+57 337-2248526,Ciénaga,Magdalena,55869,"Hola, soy Ana y estoy interesado en más información."
Diana López,diana.lópez@example.com,Calle 88 #34-15,Apartamento 16,+57 323-8498944,Ciénaga,Magdalena,53728,"Hola, soy Diana y estoy interesado en más información."
María Pérez,maría.pérez@example.com,Calle 11 #13-14,Apartamento 26,+57 349-1185383,Montería,Córdoba,56039,"Hola, soy María y estoy interesado en más información."
Ana Martínez,ana.martínez@example.com,Calle 70 #47-4,Apartamento 37,+57 338-6979312,San Andrés,San Andrés,50907,"Hola, soy Ana y estoy interesado en más información."
Juan Gómez,juan.gómez@example.com,Calle 87 #35-1,Apartamento 9,+57 300-1610193,Montería,Córdoba,51001,"Hola, soy Juan y estoy interesado en más información."
María Martínez,maría.martínez@example.com,Calle 75 #9-15,Apartamento 14,+57 309-1854235,Aracataca,Magdalena,52621,"Hola, soy María y estoy interesado en más información."
María Martínez,maría.martínez@example.com,Calle 84 #21-20,Apartamento 24,+57 306-8070826,Sincelejo,Sucre,53542,"Hola, soy María y estoy interesado en más información."
Ana Gómez,ana.gómez@example.com,Calle 72 #32-5,Apartamento 48,+57 338-8012925,Ciénaga,Magdalena,59432,"Hola, soy Ana y estoy interesado en más información."
Juan López,juan.lópez@example.com,Calle 52 #25-17,Apartamento 15,+57 320-2708933,Ciénaga,Magdalena,56386,"Hola, soy Juan y estoy interesado en más información."
Luis López,luis.lópez@example.com,Calle 22 #42-12,Apartamento 50,+57 342-5107370,San Andrés,San Andrés,59935,"Hola, soy Luis y estoy interesado en más información."
María Gómez,maría.gómez@example.com,Calle 40 #42-20,Apartamento 41,+57 308-8170414,Aracataca,Magdalena,54522,"Hola, soy María y estoy interesado en más información."
Carlos López,carlos.lópez@example.com,Calle 56 #44-7,Apartamento 42,+57 332-2019577,Montería,Córdoba,57261,"Hola, soy Carlos y estoy interesado en más información."
Diana Martínez,diana.martínez@example.com,Calle 55 #47-15,Apartamento 11,+57 336-8351905,Sincelejo,Sucre,54358,"Hola, soy Diana y estoy interesado en más información."
Carlos Gómez,carlos.gómez@example.com,Calle 86 #42-3,Apartamento 44,+57 348-9308784,Ciénaga,Magdalena,51724,"Hola, soy Carlos y estoy interesado en más información."
María Martínez,maría.martínez@example.com,Calle 14 #11-2,Apartamento 26,+57 341-8158468,Aracataca,Magdalena,51931,"Hola, soy María y estoy interesado en más información."
María Rodríguez,maría.rodríguez@example.com,Calle 90 #7-14,Apartamento 10,+57 309-4949218,Riohacha,La Guajira,56144,"Hola, soy María y estoy interesado en más información."
Diana Martínez,diana.martínez@example.com,Calle 41 #24-15,Apartamento 27,+57 335-3330255,Cartagena,Bolívar,51793,"Hola, soy Diana y estoy interesado en más información."
Diana Rodríguez,diana.rodríguez@example.com,Calle 68 #47-2,Apartamento 35,+57 343-7930557,Sincelejo,Sucre,54623,"Hola, soy Diana y estoy interesado en más información."
María Pérez,maría.pérez@example.com,Calle 100 #50-6,Apartamento 44,+57 339-8789393,Valledupar,Cesar,53562,"Hola, soy María y estoy interesado en más información."
Ana Gómez,ana.gómez@example.com,Calle 50 #42-12,Apartamento 10,+57 342-1999456,Valledupar,Cesar,50982,"Hola, soy Ana y estoy interesado en más información."
Carlos Martínez,carlos.martínez@example.com,Calle 66 #43-12,Apartamento 21,+57 311-4508444,Barranquilla,Atlántico,58886,"Hola, soy Carlos y estoy interesado en más información."
Luis Gómez,luis.gómez@example.com,Calle 27 #8-3,Apartamento 27,+57 331-4999956,San Andrés,San Andrés,51858,"Hola, soy Luis y estoy interesado en más información."
Luis Rodríguez,luis.rodríguez@example.com,Calle 92 #14-8,Apartamento 29,+57 333-6405164,Barranquilla,Atlántico,56785,"Hola, soy Luis y estoy interesado en más información."
Ana Gómez,ana.gómez@example.com,Calle 40 #6-11,Apartamento 38,+57 340-6768364,Sincelejo,Sucre,53931,"Hola, soy Ana y estoy interesado en más información."
Ana López,ana.lópez@example.com,Calle 97 #15-10,Apartamento 25,+57 328-4279177,Barranquilla,Atlántico,54595,"Hola, soy Ana y estoy interesado en más información."
Carlos Gómez,carlos.gómez@example.com,Calle 69 #14-6,Apartamento 26,+57 344-4419810,Santa Marta,Magdalena,54531,"Hola, soy Carlos y estoy interesado en más información."
Diana Pérez,diana.pérez@example.com,Calle 33 #33-1,Apartamento 21,+57 323-3509854,Ciénaga,Magdalena,53418,"Hola, soy Diana y estoy interesado en más información."
Luis Gómez,luis.gómez@example.com,Calle 20 #4-19,Apartamento 8,+57 349-8506320,Montería,Córdoba,54917,"Hola, soy Luis y estoy interesado en más información."
Luis Rodríguez,luis.rodríguez@example.com,Calle 85 #43-14,Apartamento 32,+57 312-2700621,Montería,Córdoba,52061,"Hola, soy Luis y estoy interesado en más información."
Ana Martínez,ana.martínez@example.com,Calle 87 #38-10,Apartamento 6,+57 338-5170200,Ciénaga,Magdalena,54467,"Hola, soy Ana y estoy interesado en más información."
Luis Gómez,luis.gómez@example.com,Calle 70 #43-19,Apartamento 23,+57 323-6008243,Barranquilla,Atlántico,56562,"Hola, soy Luis y estoy interesado en más información."
Juan López,juan.lópez@example.com,Calle 66 #44-5,Apartamento 7,+57 321-6885973,Aracataca,Magdalena,54436,"Hola, soy Juan y estoy interesado en más información."
Diana Pérez,diana.pérez@example.com,Calle 56 #40-19,Apartamento 48,+57 333-2035498,Ciénaga,Magdalena,53299,"Hola, soy Diana y estoy interesado en más información."
María Martínez,maría.martínez@example.com,Calle 26 #13-5,Apartamento 34,+57 324-7541136,Cartagena,Bolívar,56833,"Hola, soy María y estoy interesado en más información."
Ana Rodríguez,ana.rodríguez@example.com,Calle 29 #44-5,Apartamento 47,+57 327-7554294,Ciénaga,Magdalena,53612,"Hola, soy Ana y estoy interesado en más información."
Luis Pérez,luis.pérez@example.com,Calle 69 #21-8,Apartamento 15,+57 317-8438654,Santa Marta,Magdalena,53673,"Hola, soy Luis y estoy interesado en más información."
Carlos Gómez,carlos.gómez@example.com,Calle 69 #5-17,Apartamento 11,+57 306-5569302,Barranquilla,Atlántico,54404,"Hola, soy Carlos y estoy interesado en más información."
María López,maría.lópez@example.com,Calle 54 #33-10,Apartamento 20,+57 323-5920715,Santa Marta,Magdalena,53833,"Hola, soy María y estoy interesado en más información."
Carlos Rodríguez,carlos.rodríguez@example.com,Calle 58 #47-10,Apartamento 34,+57 344-5216258,San Andrés,San Andrés,58653,"Hola, soy Carlos y estoy interesado en más información."
Diana Gómez,diana.gómez@example.com,Calle 36 #46-2,Apartamento 49,+57 340-8662450,Aracataca,Magdalena,55446,"Hola, soy Diana y estoy interesado en más información."
Luis Pérez,luis.pérez@example.com,Calle 43 #25-17,Apartamento 27,+57 341-2801376,Barranquilla,Atlántico,56929,"Hola, soy Luis y estoy interesado en más información."
Juan Martínez,juan.martínez@example.com,Calle 77 #38-6,Apartamento 17,+57 343-9515172,Valledupar,Cesar,50001,"Hola, soy Juan y estoy interesado en más información."
Carlos Rodríguez,carlos.rodríguez@example.com,Calle 34 #35-17,Apartamento 32,+57 323-8997953,Riohacha,La Guajira,59306,"Hola, soy Carlos y estoy interesado en más información."
María Pérez,maría.pérez@example.com,Calle 33 #20-16,Apartamento 1,+57 343-6654537,Riohacha,La Guajira,54717,"Hola, soy María y estoy interesado en más información."
Ana Pérez,ana.pérez@example.com,Calle 87 #26-9,Apartamento 43,+57 330-9616307,Montería,Córdoba,51214,"Hola, soy Ana y estoy interesado en más información."
Luis Gómez,luis.gómez@example.com,Calle 27 #42-4,Apartamento 20,+57 317-9290287,Santa Marta,Magdalena,51315,"Hola, soy Luis y estoy interesado en más información."
Juan López,juan.lópez@example.com,Calle 15 #35-12,Apartamento 19,+57 312-1050440,Ciénaga,Magdalena,58340,"Hola, soy Juan y estoy interesado en más información."
Juan López,juan.lópez@example.com,Calle 56 #18-16,Apartamento 34,+57 348-2353372,Riohacha,La Guajira,51834,"Hola, soy Juan y estoy interesado en más información."
María López,maría.lópez@example.com,Calle 9 #13-7,Apartamento 32,+57 347-3880053,Barranquilla,Atlántico,58485,"Hola, soy María y estoy interesado en más información."
María Gómez,maría.gómez@example.com,Calle 15 #21-19,Apartamento 11,+57 332-2106831,Cartagena,Bolívar,50870,"Hola, soy María y estoy interesado en más información."
María López,maría.lópez@example.com,Calle 42 #15-14,Apartamento 28,+57 335-5341843,Valledupar,Cesar,56693,"Hola, soy María y estoy interesado en más información."
